[{"OBJECT_NAME":"STARLINK-1297","OBJECT_ID":"2020-019AM","EPOCH":"2026-03-09T21:10:27.474816","MEAN_MOTION":15.541873,"ECCENTRICITY":0.00048298,"INCLINATION":53.0474,"RA_OF_ASC_NODE":129.7713,"ARG_OF_PERICENTER":18.8538,"MEAN_ANOMALY":341.265,"EPHEMERIS_TYPE":0,"CLASSIFICATION_TYPE":"U","NORAD_CAT_ID":45395,"ELEMENT_SET_NO":999,"REV_AT_EPOCH":32944,"BSTAR":0.0015120632,"MEAN_MOTION_DOT":0.00101021,"MEAN_MOTION_DDOT":0},{"OBJECT_NAME":"STARLINK-1623","OBJECT_ID":"2020-057N","EPOCH":"2026-03-09T21:27:36.782208","MEAN_MOTION":15.52539688,"ECCENTRICITY":0.00071266,"INCLINATION":53.0504,"RA_OF_ASC_NODE":254.9883,"ARG_OF_PERICENTER":167.5624,"MEAN_ANOMALY":192.5562,"EPHEMERIS_TYPE":0,"CLASSIFICATION_TYPE":"U","NORAD_CAT_ID":46129,"ELEMENT_SET_NO":999,"REV_AT_EPOCH":30695,"BSTAR":0.0020334212,"MEAN_MOTION_DOT":0.00128626,"MEAN_MOTION_DDOT":0}]
